{
  "type": "FeatureCollection",
  "features": [
    {
      "type": "Feature",
      "properties": {
        "norad_id": 38091,
        "name": "BEIDOU-2 G5 (C05)",
        "group": "gnss",
        "lat": -2.582247348308468,
        "lon": 15.388407746184363,
        "alt_km": 35770.334526041115,
        "timestamp": "2025-12-25T14:48:25.022648+00:00",
        "meta_object_name": "BEIDOU-2 G5 (C05)",
        "meta_object_id": "2012-008A",
        "meta_epoch": "2025-12-24T23:39:02.942208",
        "meta_mean_motion": 1.00269891,
        "meta_eccentricity": 0.00130967,
        "meta_inclination": 3.1377,
        "meta_ra_of_asc_node": 70.6643,
        "meta_arg_of_pericenter": 232.2116,
        "meta_mean_anomaly": 204.3729,
        "meta_ephemeris_type": 0,
        "meta_classification_type": "U",
        "meta_norad_cat_id": 38091,
        "meta_element_set_no": 999,
        "meta_rev_at_epoch": 5062,
        "meta_bstar": 0,
        "meta_mean_motion_dot": 7.7e-07,
        "meta_mean_motion_ddot": 0,
        "tle_line1": "1 38091U 12008A   25358.98545072  .00000077  00000+0  00000+0 0  9997",
        "tle_line2": "2 38091   3.1377  70.6643 0013096 232.2116 204.3729  1.00269891 50622"
      },
      "geometry": {
        "type": "Point",
        "coordinates": [
          15.388407746184363,
          -2.582247348308468
        ]
      }
    },
    {
      "type": "Feature",
      "properties": {
        "norad_id": 38250,
        "name": "BEIDOU-2 M3 (C11)",
        "group": "gnss",
        "lat": -55.91759023428191,
        "lon": -139.78738695519945,
        "alt_km": 21467.13843941532,
        "timestamp": "2025-12-25T14:48:25.022659+00:00",
        "meta_object_name": "BEIDOU-2 M3 (C11)",
        "meta_object_id": "2012-018A",
        "meta_epoch": "2025-12-24T03:22:03.617760",
        "meta_mean_motion": 1.86230154,
        "meta_eccentricity": 0.00241099,
        "meta_inclination": 55.9106,
        "meta_ra_of_asc_node": 310.7747,
        "meta_arg_of_pericenter": 275.3713,
        "meta_mean_anomaly": 84.3565,
        "meta_ephemeris_type": 0,
        "meta_classification_type": "U",
        "meta_norad_cat_id": 38250,
        "meta_element_set_no": 999,
        "meta_rev_at_epoch": 9268,
        "meta_bstar": 0,
        "meta_mean_motion_dot": -5.3e-07,
        "meta_mean_motion_ddot": 0,
        "tle_line1": "1 38250U 12018A   25358.14031965 -.00000053  00000+0  00000+0 0  9999",
        "tle_line2": "2 38250  55.9106 310.7747 0024109 275.3713  84.3565  1.86230154 92685"
      },
      "geometry": {
        "type": "Point",
        "coordinates": [
          -139.78738695519945,
          -55.91759023428191
        ]
      }
    },
    {
      "type": "Feature",
      "properties": {
        "norad_id": 38251,
        "name": "BEIDOU-2 M4 (C12)",
        "group": "gnss",
        "lat": -35.4655830082686,
        "lon": -78.99655302997358,
        "alt_km": 21498.24093490311,
        "timestamp": "2025-12-25T14:48:25.022669+00:00",
        "meta_object_name": "BEIDOU-2 M4 (C12)",
        "meta_object_id": "2012-018B",
        "meta_epoch": "2025-12-25T03:30:42.765120",
        "meta_mean_motion": 1.86229477,
        "meta_eccentricity": 0.0014906,
        "meta_inclination": 55.8105,
        "meta_ra_of_asc_node": 309.9689,
        "meta_arg_of_pericenter": 280.9074,
        "meta_mean_anomaly": 78.9304,
        "meta_ephemeris_type": 0,
        "meta_classification_type": "U",
        "meta_norad_cat_id": 38251,
        "meta_element_set_no": 999,
        "meta_rev_at_epoch": 9270,
        "meta_bstar": 0,
        "meta_mean_motion_dot": -5.3e-07,
        "meta_mean_motion_ddot": 0,
        "tle_line1": "1 38251U 12018B   25359.14632830 -.00000053  00000+0  00000+0 0  9999",
        "tle_line2": "2 38251  55.8105 309.9689 0014906 280.9074  78.9304  1.86229477 92704"
      },
      "geometry": {
        "type": "Point",
        "coordinates": [
          -78.99655302997358,
          -35.4655830082686
        ]
      }
    },
    {
      "type": "Feature",
      "properties": {
        "norad_id": 38652,
        "name": "SES-5 (EGNOS/PRN 136)",
        "group": "gnss",
        "lat": 0.001803977073276912,
        "lon": -38.53193243240448,
        "alt_km": 35781.598155089094,
        "timestamp": "2025-12-25T14:48:25.022682+00:00",
        "meta_object_name": "SES-5 (EGNOS/PRN 136)",
        "meta_object_id": "2012-036A",
        "meta_epoch": "2025-12-25T06:14:32.563968",
        "meta_mean_motion": 1.0027015,
        "meta_eccentricity": 0.00018833,
        "meta_inclination": 0.0572,
        "meta_ra_of_asc_node": 305.6336,
        "meta_arg_of_pericenter": 323.875,
        "meta_mean_anomaly": 283.131,
        "meta_ephemeris_type": 0,
        "meta_classification_type": "U",
        "meta_norad_cat_id": 38652,
        "meta_element_set_no": 999,
        "meta_rev_at_epoch": 4271,
        "meta_bstar": 0,
        "meta_mean_motion_dot": 5.5e-07,
        "meta_mean_motion_ddot": 0,
        "tle_line1": "1 38652U 12036A   25359.26009912  .00000055  00000+0  00000+0 0  9997",
        "tle_line2": "2 38652   0.0572 305.6336 0001883 323.8750 283.1310  1.00270150 42712"
      },
      "geometry": {
        "type": "Point",
        "coordinates": [
          -38.53193243240448,
          0.001803977073276912
        ]
      }
    },
    {
      "type": "Feature",
      "properties": {
        "norad_id": 38775,
        "name": "BEIDOU-2 M6 (C14)",
        "group": "gnss",
        "lat": 25.050740414731994,
        "lon": -129.4310793374534,
        "alt_km": 21556.174351452224,
        "timestamp": "2025-12-25T14:48:25.022692+00:00",
        "meta_object_name": "BEIDOU-2 M6 (C14)",
        "meta_object_id": "2012-050B",
        "meta_epoch": "2025-12-24T07:41:05.368128",
        "meta_mean_motion": 1.86230801,
        "meta_eccentricity": 0.00114872,
        "meta_inclination": 56.388,
        "meta_ra_of_asc_node": 68.6832,
        "meta_arg_of_pericenter": 343.1884,
        "meta_mean_anomaly": 16.8281,
        "meta_ephemeris_type": 0,
        "meta_classification_type": "U",
        "meta_norad_cat_id": 38775,
        "meta_element_set_no": 999,
        "meta_rev_at_epoch": 9005,
        "meta_bstar": 0,
        "meta_mean_motion_dot": -2.4e-07,
        "meta_mean_motion_ddot": 0,
        "tle_line1": "1 38775U 12050B   25358.32020102 -.00000024  00000+0  00000+0 0  9996",
        "tle_line2": "2 38775  56.3880  68.6832 0011487 343.1884  16.8281  1.86230801 90056"
      },
      "geometry": {
        "type": "Point",
        "coordinates": [
          -129.4310793374534,
          25.050740414731994
        ]
      }
    },
    {
      "type": "Feature",
      "properties": {
        "norad_id": 38779,
        "name": "GSAT-10 (GAGAN/PRN 128)",
        "group": "gnss",
        "lat": 0.04897328656551639,
        "lon": 39.477853474466315,
        "alt_km": 35785.05348573622,
        "timestamp": "2025-12-25T14:48:25.022702+00:00",
        "meta_object_name": "GSAT-10 (GAGAN/PRN 128)",
        "meta_object_id": "2012-051B",
        "meta_epoch": "2025-12-24T22:22:53.622048",
        "meta_mean_motion": 1.00271102,
        "meta_eccentricity": 0.0002181,
        "meta_inclination": 0.0626,
        "meta_ra_of_asc_node": 262.1776,
        "meta_arg_of_pericenter": 219.7233,
        "meta_mean_anomaly": 30.5548,
        "meta_ephemeris_type": 0,
        "meta_classification_type": "U",
        "meta_norad_cat_id": 38779,
        "meta_element_set_no": 999,
        "meta_rev_at_epoch": 4835,
        "meta_bstar": 0,
        "meta_mean_motion_dot": -1.44e-06,
        "meta_mean_motion_ddot": 0,
        "tle_line1": "1 38779U 12051B   25358.93256507 -.00000144  00000+0  00000+0 0  9991",
        "tle_line2": "2 38779   0.0626 262.1776 0002181 219.7233  30.5548  1.00271102 48359"
      },
      "geometry": {
        "type": "Point",
        "coordinates": [
          39.477853474466315,
          0.04897328656551639
        ]
      }
    },
    {
      "type": "Feature",
      "properties": {
        "norad_id": 38833,
        "name": "GPS BIIF-3  (PRN 24)",
        "group": "gnss",
        "lat": -31.406630998087316,
        "lon": -2.490393315268217,
        "alt_km": 20612.047574891483,
        "timestamp": "2025-12-25T14:48:25.022722+00:00",
        "meta_object_name": "GPS BIIF-3  (PRN 24)",
        "meta_object_id": "2012-053A",
        "meta_epoch": "2025-12-24T07:38:21.199488",
        "meta_mean_motion": 2.00565058,
        "meta_eccentricity": 0.01760755,
        "meta_inclination": 53.5598,
        "meta_ra_of_asc_node": 150.7645,
        "meta_arg_of_pericenter": 64.1634,
        "meta_mean_anomaly": 297.6191,
        "meta_ephemeris_type": 0,
        "meta_classification_type": "U",
        "meta_norad_cat_id": 38833,
        "meta_element_set_no": 999,
        "meta_rev_at_epoch": 9593,
        "meta_bstar": 0,
        "meta_mean_motion_dot": 8.3e-07,
        "meta_mean_motion_ddot": 0,
        "tle_line1": "1 38833U 12053A   25358.31830092  .00000083  00000+0  00000+0 0  9994",
        "tle_line2": "2 38833  53.5598 150.7645 0176075  64.1634 297.6191  2.00565058 95932"
      },
      "geometry": {
        "type": "Point",
        "coordinates": [
          -2.490393315268217,
          -31.406630998087316
        ]
      }
    }
  ]
}